0 FENGYUN 1C DEB
1 32137U 99025CSF 13288.74743409  .00003588  00000-0  65265-3 0  4021
2 32137 098.6528 271.4419 0318792 273.4954 082.0280 14.38867758327984
0 FENGYUN 1C DEB
1 32137U 99025CSF 13293.19807709  .00003767  00000-0  68313-3 0  4037
2 32137 098.6523 275.9363 0319113 260.2635 096.2885 14.38903994328627
